BEIDOU 3 (C01)          
1 36287U 10001A   21164.62517404 -.00000271  00000-0  00000-0 0  9992
2 36287   1.8686  46.1693 0005399  79.0295 142.4401  1.00269424 41812
BEIDOU 5 (C06)          
1 36828U 10036A   21164.21303838 -.00000008  00000-0  00000-0 0  9998
2 36828  54.1752 179.6313 0113936 235.4877  41.7926  1.00262064 39868
BEIDOU 6 (C04)          
1 37210U 10057A   21164.63811067 -.00000102  00000-0  00000-0 0  9996
2 37210   0.8321  47.0454 0003423 122.8330 121.9679  1.00271469 38932
BEIDOU 7 (C07)          
1 37256U 10068A   21164.21497819 -.00000215  00000-0  00000-0 0  9992
2 37256  50.8686 294.0508 0085198 215.3254 307.4836  1.00255425 38443
BEIDOU 8 (C08)          
1 37384U 11013A   21164.42354185 -.00000201  00000-0  00000-0 0  9991
2 37384  59.7715  57.9467 0051933 205.6313 267.7263  1.00254701 37328
BEIDOU 9 (C09)          
1 37763U 11038A   21164.36169889 -.00000011  00000-0  00000-0 0  9996
2 37763  54.4632 182.0736 0083538 226.7247  78.6608  1.00265941 36299
BEIDOU 10 (C10)         
1 37948U 11073A   21164.21811128 -.00000147  00000-0  00000+0 0  9993
2 37948  50.9717 293.6693 0075239 214.6118 285.3821  1.00294342 35056
BEIDOU 11 (C05)         
1 38091U 12008A   21164.55147039  .00000067  00000-0  00000-0 0  9993
2 38091   1.5450  67.8101 0007904 333.0752 118.3781  1.00271922 34138
BEIDOU 12 (C11)         
1 38250U 12018A   21164.25587998 -.00000075  00000-0  00000-0 0  9990
2 38250  56.7561   5.7496 0020092 248.7312 111.0734  1.86234328 62216
BEIDOU 13 (C12)         
1 38251U 12018B   21164.55929824 -.00000074  00000-0  00000-0 0  9991
2 38251  56.6774   5.0886 0010936 251.7196 355.9188  1.86234247 62210
BEIDOU 15 (C14)         
1 38775U 12050B   21164.31214521  .00000034  00000-0  00000-0 0  9998
2 38775  55.2076 124.1228 0016163 318.3584 320.9740  1.86232260 59588
BEIDOU 16 (C02)         
1 38953U 12059A   21162.88591045 -.00000162  00000-0  00000+0 0  9996
2 38953   1.9580  84.7640 0007741 295.7133 282.7816  1.00268302 31685
BEIDOU 17 (C31)         
1 40549U 15019A   21164.22316337 -.00000177  00000-0  00000-0 0  9995
2 40549  52.5029 317.0372 0038350 186.7881 294.3390  1.00266570 22739
BEIDOU 18 (C57)         
1 40748U 15037A   21164.32247289 -.00000076  00000-0  00000-0 0  9994
2 40748  55.9381   4.1863 0004992  31.4303 327.3042  1.86233351 40036
BEIDOU 19 (C58)         
1 40749U 15037B   21164.41242090 -.00000076  00000-0  00000-0 0  9990
2 40749  55.9413   4.1713 0004472 349.1666 206.0069  1.86232174 40035
BEIDOU 20 (C18)         
1 40938U 15053A   21164.43958130 -.00000134  00000-0  00000-0 0  9994
2 40938  52.0700 280.1093 0047227 191.4202  44.5579  1.00284411 21002
BEIDOU IGSO-6 (C13)     
1 41434U 16021A   21164.22095966 -.00000167  00000-0  00000-0 0  9994
2 41434  57.5560  56.6859 0038064 214.6623 166.5650  1.00270126 19132
BEIDOU-2 G7 (C03)       
1 41586U 16037A   21164.43351578 -.00000344  00000-0  00000-0 0  9993
2 41586   1.6914  67.0022 0009236  17.6509  83.9538  1.00270997 18440
BEIDOU-3 M1 (C19)       
1 43001U 17069A   21164.03974771  .00000031  00000-0  00000-0 0  9997
2 43001  55.3614 124.0829 0012269 291.7367 321.0290  1.86231772 24511
BEIDOU-3 M2 (C20)       
1 43002U 17069B   21164.40143796  .00000035  00000-0  00000-0 0  9998
2 43002  55.3614 124.1062 0010872 309.2647 229.4852  1.86231382 24518
BEIDOU-3 M3 (C27)       
1 43107U 18003A   21164.18504787 -.00000078  00000-0  00000-0 0  9997
2 43107  55.3782   5.2718 0005757  53.1302 146.4223  1.86232732 23278
BEIDOU-3 M4 (C28)       
1 43108U 18003B   21164.08843515 -.00000078  00000-0  00000-0 0  9992
2 43108  55.3757   5.2650 0001841 240.3385 299.6147  1.86232712 23271
BEIDOU-3 M5 (C21)       
1 43207U 18018A   21163.73021556  .00000029  00000-0  00000-0 0  9997
2 43207  55.3210 124.2203 0008113 325.0193  34.8841  1.86231656 22655
BEIDOU-3 M6 (C22)       
1 43208U 18018B   21163.79688770  .00000029  00000-0  00000-0 0  9991
2 43208  55.3206 124.2226 0010284 301.3598  58.4963  1.86231712 22654
BEIDOU-3 M7 (C29)       
1 43245U 18029A   21164.34796208 -.00000077  00000-0  00000-0 0  9996
2 43245  55.3113   3.0590 0001358  63.0875 155.8807  1.86232787 21811
BEIDOU-3 M8 (C30)       
1 43246U 18029B   21164.25602660 -.00000077  00000-0  10000-3 0  9999
2 43246  55.3101   3.0937 0004345   6.3156 197.1899  1.86233189 21801
BEIDOU IGSO-7 (C16)     
1 43539U 18057A   21164.10639488 -.00000062  00000-0  00000-0 0  9997
2 43539  55.0564 178.9929 0038902 223.2750  11.3068  1.00270274 10800
BEIDOU-3 M9 (C23)       
1 43581U 18062A   21164.26531337  .00000028  00000-0  00000-0 0  9992
2 43581  54.4030 244.7413 0003995 261.9746 157.8318  1.86231862 19555
BEIDOU-3 M10 (C24)      
1 43582U 18062B   21163.62444620  .00000030  00000-0  00000-0 0  9993
2 43582  54.4021 244.7522 0004027 349.1848  92.2830  1.86232051 19547
BEIDOU-3 M11 (C25)      
1 43602U 18067A   21164.52284523  .00000029  00000-0  00000-0 0  9993
2 43602  54.4784 243.3059 0006405 357.6586   8.3785  1.86231690 19052
BEIDOU-3 M12 (C26)      
1 43603U 18067B   21164.26297600  .00000030  00000-0  00000-0 0  9997
2 43603  54.4752 243.2802 0003775 343.3702 118.9000  1.86231626 19060
BEIDOU-3 M13 (C32)      
1 43622U 18072A   21163.83827544  .00000029  00000-0  00000-0 0  9990
2 43622  55.2857 123.7846 0008725 289.6993 277.9347  1.86231779 18563
BEIDOU-3 M14 (C33)      
1 43623U 18072B   21164.31244749  .00000033  00000-0  00000-0 0  9990
2 43623  55.2862 123.7604 0006995 308.8567 306.9241  1.86231809 18571
BEIDOU-3 M15 (C34)      
1 43647U 18078A   21164.35589046 -.00000077  00000-0  10000-3 0  9991
2 43647  55.2075   3.2495 0007040   6.5001 173.6390  1.86232791 18081
BEIDOU-3 M16 (C35)      
1 43648U 18078B   21164.55664662 -.00000076  00000-0  10000-3 0  9991
2 43648  55.2010   3.2481 0005204  22.4694 200.7380  1.86232340 18105
BEIDOU-3 G1 (C59)       
1 43683U 18085A   21164.40118880 -.00000266  00000-0  00000-0 0  9995
2 43683   1.0612 227.7568 0002798   8.8396 309.7633  1.00275335  9706
BEIDOU-3 M17 (C36)      
1 43706U 18093A   21163.84056218  .00000029  00000-0  00000-0 0  9999
2 43706  54.4827 244.6149 0010409 265.8644  94.0966  1.86231949 17455
BEIDOU-3 M18 (C37)      
1 43707U 18093B   21163.85292631  .00000029  00000-0  00000-0 0  9992
2 43707  54.4838 244.6046 0008124 290.7386 168.3571  1.86232073 17440
BEIDOU-3 IGSO-1 (C38)   
1 44204U 19023A   21163.64125175 -.00000219  00000-0  00000-0 0  9996
2 44204  56.0102  56.9698 0018482 192.2019 354.3094  1.00297063  8004
BEIDOU-2 G8             
1 44231U 19027A   21164.62437745 -.00000236  00000-0  00000-0 0  9997
2 44231   0.2717 346.6333 0005741 202.1744  82.7203  1.00271120  7720
BEIDOU-3 IGSO-2 (C39)   
1 44337U 19035A   21164.30301985 -.00000055  00000-0  00000-0 0  9993
2 44337  55.0907 175.0309 0020260 193.5278 109.5680  1.00282705  7347
BEIDOU-3 M23 (C45)      
1 44542U 19061A   21164.40053466  .00000028  00000-0  10000-3 0  9992
2 44542  54.7077 244.6640 0007637 321.7105  97.5849  1.86231443 11713
BEIDOU-3 M24 (C46)      
1 44543U 19061B   21164.30362771  .00000029  00000-0  10000-3 0  9995
2 44543  54.7068 244.6369 0005004 309.8227 315.3483  1.86231639 11712
BEIDOU-3 IGSO-3         
1 44709U 19073A   21164.31447944 -.00000175  00000-0  00000-0 0  9998
2 44709  57.8497 300.1997 0019485 197.9350 343.9305  1.00277293  6101
BEIDOU-3 M21            
1 44793U 19078A   21164.42279559 -.00000077  00000-0  10000-3 0  9998
2 44793  55.0551   3.3130 0006889  14.2220 165.2184  1.86232357 10579
BEIDOU-3 M22            
1 44794U 19078B   21164.02127610 -.00000079  00000-0  00000-0 0  9993
2 44794  55.0299   3.3263 0004787  13.7324 167.4881  1.86232862 10568
BEIDOU-3 M19            
1 44864U 19090A   21164.24214007  .00000033  00000-0  00000-0 0  9995
2 44864  55.2208 124.0019 0017985 270.1584 253.7402  1.86231888 10159
BEIDOU-3 M20            
1 44865U 19090B   21164.23829660  .00000033  00000-0  00000-0 0  9992
2 44865  55.2225 124.0328 0016856 283.6696 327.5703  1.86231859 10131
BEIDOU-3 G2             
1 45344U 20017A   21164.55574495 -.00000131  00000-0  00000-0 0  9994
2 45344   2.4380 336.5766 0003871 122.4699  83.1885  1.00272111  4920
BEIDOU-3 G3             
1 45807U 20040A   21164.59563091 -.00000342  00000-0  00000-0 0  9992
2 45807   2.2913 298.6097 0004356 355.0164 293.5000  1.00273714  3733
